{"type": "FeatureCollection", "features": [ {"type": "Feature", "properties": {"norad_id": 29855, "name": "FENGYUN 1C DEB", "group": "fengyun-1c-debris", "lat": -8.46721751194952, "lon": -80.72082048139796, "alt_km": 883.619251250786, "timestamp": "2025-12-01T03:58:50.085644+00:00", "meta": {"OBJECT_NAME": "FENGYUN 1C DEB", "OBJECT_ID": "1999-025EZ", "EPOCH": "2025-11-30T18:02:44.623104", "MEAN_MOTION": 14.01447723, "ECCENTRICITY": 0.0183951, "INCLINATION": 98.1806, "RA_OF_ASC_NODE": 277.6807, "ARG_OF_PERICENTER": 79.8856, "MEAN_ANOMALY": 346.477, "EPHEMERIS_TYPE": 0, "CLASSIFICATION_TYPE": "U", "NORAD_CAT_ID": 29855, "ELEMENT_SET_NO": 999, "REV_AT_EPOCH": 95544, "BSTAR": 0.001839, "MEAN_MOTION_DOT": 3.183e-05, "MEAN_MOTION_DDOT": 0, "GROUP": "fengyun-1c-debris"}, "tle": {"line1": "1 29855U 99025EZ  25334.75190536  .00003183  00000+0  18390-2 0  9994", "line2": "2 29855  98.1806 277.6807 0183951  79.8856 346.4770 14.01447723955441"}}, "geometry": {"type": "Point", "coordinates": [-80.72082048139796, -8.46721751194952]}}, {"type": "Feature", "properties": {"norad_id": 29856, "name": "FENGYUN 1C DEB", "group": "fengyun-1c-debris", "lat": 37.811331480618655, "lon": -104.38857274960144, "alt_km": 915.3915235039285, "timestamp": "2025-12-01T03:58:50.085655+00:00", "meta": {"OBJECT_NAME": "FENGYUN 1C DEB", "OBJECT_ID": "1999-025FA", "EPOCH": "2025-11-30T12:26:43.693728", "MEAN_MOTION": 14.47283827, "ECCENTRICITY": 0.02637122, "INCLINATION": 98.6898, "RA_OF_ASC_NODE": 68.1302, "ARG_OF_PERICENTER": 334.8937, "MEAN_ANOMALY": 35.4601, "EPHEMERIS_TYPE": 0, "CLASSIFICATION_TYPE": "U", "NORAD_CAT_ID": 29856, "ELEMENT_SET_NO": 999, "REV_AT_EPOCH": 96198, "BSTAR": 0.0022707206, "MEAN_MOTION_DOT": 0.00012836, "MEAN_MOTION_DDOT": 0, "GROUP": "fengyun-1c-debris"}, "tle": {"line1": "1 29856U 99025FA  25334.51856127  .00012836  00000+0  22707-2 0  9996", "line2": "2 29856  98.6898  68.1302 0263712 334.8937  35.4601 14.47283827961986"}}, "geometry": {"type": "Point", "coordinates": [-104.38857274960144, 37.811331480618655]}}, {"type": "Feature", "properties": {"norad_id": 29857, "name": "FENGYUN 1C DEB", "group": "fengyun-1c-debris", "lat": 23.356027975813188, "lon": 167.39184923054538, "alt_km": 1096.2185509505962, "timestamp": "2025-12-01T03:58:50.085665+00:00", "meta": {"OBJECT_NAME": "FENGYUN 1C DEB", "OBJECT_ID": "1999-025FB", "EPOCH": "2025-11-30T13:19:00.108768", "MEAN_MOTION": 13.81801553, "ECCENTRICITY": 0.0193011, "INCLINATION": 98.4232, "RA_OF_ASC_NODE": 343.1771, "ARG_OF_PERICENTER": 327.7502, "MEAN_ANOMALY": 31.1969, "EPHEMERIS_TYPE": 0, "CLASSIFICATION_TYPE": "U", "NORAD_CAT_ID": 29857, "ELEMENT_SET_NO": 999, "REV_AT_EPOCH": 94607, "BSTAR": 0.0017101, "MEAN_MOTION_DOT": 2.071e-05, "MEAN_MOTION_DDOT": 0, "GROUP": "fengyun-1c-debris"}, "tle": {"line1": "1 29857U 99025FB  25334.55486237  .00002071  00000+0  17101-2 0  9994", "line2": "2 29857  98.4232 343.1771 0193011 327.7502  31.1969 13.81801553946078"}}, "geometry": {"type": "Point", "coordinates": [167.39184923054538, 23.356027975813188]}}, {"type": "Feature", "properties": {"norad_id": 29858, "name": "FENGYUN 1C DEB", "group": "fengyun-1c-debris", "lat": -48.408094184229114, "lon": -113.40398445084861, "alt_km": 1079.330732385425, "timestamp": "2025-12-01T03:58:50.085676+00:00", "meta": {"OBJECT_NAME": "FENGYUN 1C DEB", "OBJECT_ID": "1999-025FC", "EPOCH": "2025-11-30T18:53:22.250976", "MEAN_MOTION": 13.77739885, "ECCENTRICITY": 0.0199684, "INCLINATION": 99.2137, "RA_OF_ASC_NODE": 76.7651, "ARG_OF_PERICENTER": 96.0657, "MEAN_ANOMALY": 53.6869, "EPHEMERIS_TYPE": 0, "CLASSIFICATION_TYPE": "U", "NORAD_CAT_ID": 29858, "ELEMENT_SET_NO": 999, "REV_AT_EPOCH": 94389, "BSTAR": 0.0011651, "MEAN_MOTION_DOT": 1.309e-05, "MEAN_MOTION_DDOT": 0, "GROUP": "fengyun-1c-debris"}, "tle": {"line1": "1 29858U 99025FC  25334.78706309  .00001309  00000+0  11651-2 0  9992", "line2": "2 29858  99.2137  76.7651 0199684  96.0657  53.6869 13.77739885943895"}}, "geometry": {"type": "Point", "coordinates": [-113.40398445084861, -48.408094184229114]}}, {"type": "Feature", "properties": {"norad_id": 29859, "name": "FENGYUN 1C DEB", "group": "fengyun-1c-debris", "lat": -54.06871253188969, "lon": -176.99518224599765, "alt_km": 881.7555636982079, "timestamp": "2025-12-01T03:58:50.085687+00:00", "meta": {"OBJECT_NAME": "FENGYUN 1C DEB", "OBJECT_ID": "1999-025FD", "EPOCH": "2025-11-30T12:30:59.008320", "MEAN_MOTION": 13.73910212, "ECCENTRICITY": 0.02958585, "INCLINATION": 98.3355, "RA_OF_ASC_NODE": 170.7705, "ARG_OF_PERICENTER": 245.9707, "MEAN_ANOMALY": 111.0222, "EPHEMERIS_TYPE": 0, "CLASSIFICATION_TYPE": "U", "NORAD_CAT_ID": 29859, "ELEMENT_SET_NO": 999, "REV_AT_EPOCH": 93812, "BSTAR": 0.0025572635, "MEAN_MOTION_DOT": 3.251e-05, "MEAN_MOTION_DDOT": 0, "GROUP": "fengyun-1c-debris"}, "tle": {"line1": "1 29859U 99025FD  25334.52151630  .00003251  00000+0  25573-2 0  9992", "line2": "2 29859  98.3355 170.7705 0295858 245.9707 111.0222 13.73910212938127"}}, "geometry": {"type": "Point", "coordinates": [-176.99518224599765, -54.06871253188969]}}, {"type": "Feature", "properties": {"norad_id": 29860, "name": "FENGYUN 1C DEB", "group": "fengyun-1c-debris", "lat": -63.809008518795906, "lon": 28.100640508105776, "alt_km": 948.0296504758298, "timestamp": "2025-12-01T03:58:50.085698+00:00", "meta": {"OBJECT_NAME": "FENGYUN 1C DEB", "OBJECT_ID": "1999-025FE", "EPOCH": "2025-11-30T02:25:00.823008", "MEAN_MOTION": 13.77429669, "ECCENTRICITY": 0.02212677, "INCLINATION": 98.6183, "RA_OF_ASC_NODE": 9.1751, "ARG_OF_PERICENTER": 17.5996, "MEAN_ANOMALY": 40.7968, "EPHEMERIS_TYPE": 0, "CLASSIFICATION_TYPE": "U", "NORAD_CAT_ID": 29860, "ELEMENT_SET_NO": 999, "REV_AT_EPOCH": 93965, "BSTAR": 0.0025951407, "MEAN_MOTION_DOT": 3.054e-05, "MEAN_MOTION_DDOT": 0, "GROUP": "fengyun-1c-debris"}, "tle": {"line1": "1 29860U 99025FE  25334.10070397  .00003054  00000+0  25951-2 0  9999", "line2": "2 29860  98.6183   9.1751 0221267  17.5996  40.7968 13.77429669939652"}}, "geometry": {"type": "Point", "coordinates": [28.100640508105776, -63.809008518795906]}}, {"type": "Feature", "properties": {"norad_id": 29865, "name": "FENGYUN 1C DEB", "group": "fengyun-1c-debris", "lat": -17.1850241001115, "lon": -112.62344571236649, "alt_km": 704.9120631579108, "timestamp": "2025-12-01T03:58:50.085709+00:00", "meta": {"OBJECT_NAME": "FENGYUN 1C DEB", "OBJECT_ID": "1999-025FK", "EPOCH": "2025-11-30T12:38:23.588160", "MEAN_MOTION": 14.82376726, "ECCENTRICITY": 0.0115841, "INCLINATION": 98.9192, "RA_OF_ASC_NODE": 243.8806, "ARG_OF_PERICENTER": 179.9812, "MEAN_ANOMALY": 353.2928, "EPHEMERIS_TYPE": 0, "CLASSIFICATION_TYPE": "U", "NORAD_CAT_ID": 29865, "ELEMENT_SET_NO": 999, "REV_AT_EPOCH": 577, "BSTAR": 0.0007728054, "MEAN_MOTION_DOT": 6.889e-05, "MEAN_MOTION_DDOT": 0, "GROUP": "fengyun-1c-debris"}, "tle": {"line1": "1 29865U 99025FK  25334.52666190  .00006889  00000+0  77281-3 0  9995", "line2": "2 29865  98.9192 243.8806 0115841 179.9812 353.2928 14.82376726  5775"}}, "geometry": {"type": "Point", "coordinates": [-112.62344571236649, -17.1850241001115]}}, {"type": "Feature", "properties": {"norad_id": 29866, "name": "FENGYUN 1C DEB", "group": "fengyun-1c-debris", "lat": 26.84500070140558, "lon": 145.26857721672292, "alt_km": 697.4043225090618, "timestamp": "2025-12-01T03:58:50.085721+00:00", "meta": {"OBJECT_NAME": "FENGYUN 1C DEB", "OBJECT_ID": "1999-025FL", "EPOCH": "2025-11-30T13:03:32.753376", "MEAN_MOTION": 14.64131112, "ECCENTRICITY": 0.0194032, "INCLINATION": 98.0361, "RA_OF_ASC_NODE": 320.5612, "ARG_OF_PERICENTER": 253.6153, "MEAN_ANOMALY": 226.258, "EPHEMERIS_TYPE": 0, "CLASSIFICATION_TYPE": "U", "NORAD_CAT_ID": 29866, "ELEMENT_SET_NO": 999, "REV_AT_EPOCH": 148, "BSTAR": 0.00038643, "MEAN_MOTION_DOT": 2.614e-05, "MEAN_MOTION_DDOT": 0, "GROUP": "fengyun-1c-debris"}, "tle": {"line1": "1 29866U 99025FL  25334.54412909  .00002614  00000+0  38643-3 0  9996", "line2": "2 29866  98.0361 320.5612 0194032 253.6153 226.2580 14.64131112  1485"}}, "geometry": {"type": "Point", "coordinates": [145.26857721672292, 26.84500070140558]}}, {"type": "Feature", "properties": {"norad_id": 29868, "name": "FENGYUN 1C DEB", "group": "fengyun-1c-debris", "lat": 50.26671805930022, "lon": -149.27253720039684, "alt_km": 621.8608454784735, "timestamp": "2025-12-01T03:58:50.085732+00:00", "meta": {"OBJECT_NAME": "FENGYUN 1C DEB", "OBJECT_ID": "1999-025FN", "EPOCH": "2025-11-30T19:32:54.954816", "MEAN_MOTION": 14.78192521, "ECCENTRICITY": 0.0198263, "INCLINATION": 97.9525, "RA_OF_ASC_NODE": 20.6984, "ARG_OF_PERICENTER": 42.5226, "MEAN_ANOMALY": 15.7168, "EPHEMERIS_TYPE": 0, "CLASSIFICATION_TYPE": "U", "NORAD_CAT_ID": 29868, "ELEMENT_SET_NO": 999, "REV_AT_EPOCH": 119, "BSTAR": 0.00064727, "MEAN_MOTION_DOT": 6.47e-05, "MEAN_MOTION_DDOT": 0, "GROUP": "fengyun-1c-debris"}, "tle": {"line1": "1 29868U 99025FN  25334.81452494  .00006470  00000+0  64727-3 0  9997", "line2": "2 29868  97.9525  20.6984 0198263  42.5226  15.7168 14.78192521  1190"}}, "geometry": {"type": "Point", "coordinates": [-149.27253720039684, 50.26671805930022]}}]}